[{"OBJECT_NAME":"GAOFEN-9 03","OBJECT_ID":"2020-039A","EPOCH":"2026-03-09T21:55:15.121344","MEAN_MOTION":15.30529116,"ECCENTRICITY":0.0013094,"INCLINATION":97.5219,"RA_OF_ASC_NODE":201.2158,"ARG_OF_PERICENTER":77.4533,"MEAN_ANOMALY":282.8172,"EPHEMERIS_TYPE":0,"CLASSIFICATION_TYPE":"U","NORAD_CAT_ID":45794,"ELEMENT_SET_NO":999,"REV_AT_EPOCH":31856,"BSTAR":0.00039258132,"MEAN_MOTION_DOT":0.00011544,"MEAN_MOTION_DDOT":0},{"OBJECT_NAME":"STARLINK-36481","OBJECT_ID":"2026-002C","EPOCH":"2026-03-09T01:46:48.422784","MEAN_MOTION":15.27611965,"ECCENTRICITY":0.0001216,"INCLINATION":42.9981,"RA_OF_ASC_NODE":328.836,"ARG_OF_PERICENTER":260.8046,"MEAN_ANOMALY":99.2668,"EPHEMERIS_TYPE":0,"CLASSIFICATION_TYPE":"U","NORAD_CAT_ID":67307,"ELEMENT_SET_NO":999,"REV_AT_EPOCH":1098,"BSTAR":0.0010584992,"MEAN_MOTION_DOT":0.00029009,"MEAN_MOTION_DDOT":0}]
